TEVEL2-6                
1 63215U 25052F   26068.64958975  .00021046  00000+0  70909-3 0  9996
2 63215  97.4016 325.0381 0004769  95.6604 264.5181 15.30760889 54861
STARLINK-33656          
1 63389U 25063AC  26068.32885069  .00025921  00000+0  88451-3 0  9995
2 63389  53.1601  54.1769 0001481  85.8250 274.2920 15.30189501 54706
