[{"OBJECT_NAME":"TEVEL2-6","OBJECT_ID":"2025-052F","EPOCH":"2026-03-09T15:35:24.554400","MEAN_MOTION":15.30760889,"ECCENTRICITY":0.0004769,"INCLINATION":97.4016,"RA_OF_ASC_NODE":325.0381,"ARG_OF_PERICENTER":95.6604,"MEAN_ANOMALY":264.5181,"EPHEMERIS_TYPE":0,"CLASSIFICATION_TYPE":"U","NORAD_CAT_ID":63215,"ELEMENT_SET_NO":999,"REV_AT_EPOCH":5486,"BSTAR":0.00070909,"MEAN_MOTION_DOT":0.00021046,"MEAN_MOTION_DDOT":0},{"OBJECT_NAME":"STARLINK-33656","OBJECT_ID":"2025-063AC","EPOCH":"2026-03-09T07:53:32.699616","MEAN_MOTION":15.30189501,"ECCENTRICITY":0.00014818,"INCLINATION":53.1601,"RA_OF_ASC_NODE":54.1769,"ARG_OF_PERICENTER":85.825,"MEAN_ANOMALY":274.292,"EPHEMERIS_TYPE":0,"CLASSIFICATION_TYPE":"U","NORAD_CAT_ID":63389,"ELEMENT_SET_NO":999,"REV_AT_EPOCH":5470,"BSTAR":0.00088451424,"MEAN_MOTION_DOT":0.00025921,"MEAN_MOTION_DDOT":0}]
